{
    "stores": [
        {
            "postalCode": "M5B 1L1",
            "street": "60 Carlton Street",
            "city": "Toronto, Ontario",
            "company": "Loblaws"
        },
        {
            "postalCode": "M4K 2P1",
            "street": "720 Broadview Ave",
            "city": "Toronto, Ontario",
            "company": "Loblaws"
        },
        {
            "postalCode": "M5E 1Z2",
            "street": "10 Lower Jarvis St",
            "city": "Toronto, Ontario",
            "company": "Loblaws"
        },
        {
            "postalCode": "M4E 3W2",
            "street": "50 Musgrave St",
            "city": "Toronto, Ontario",
            "company": "Loblaws"
        },
        {
            "postalCode": "M4H 1P6",
            "street": "11 Redway Rd",
            "city": "Toronto, Ontario",
            "company": "Loblaws"
        },
        {
            "postalCode": "M4M 3H9",
            "street": "17 Leslie St",
            "city": "Toronto, Ontario",
            "company": "Loblaws"
        },
        {
            "postalCode": "M4K 2P1",
            "street": "720 Broadview Ave",
            "city": "Toronto, Ontario",
            "company": "Loblaws"
        },
        {
            "postalCode": "M4P 1H4",
            "street": "101 Eglinton Ave E Unit 1",
            "city": "Toronto, Ontario",
            "company": "Loblaws"
        },
        {
            "postalCode": "M4G 1E1",
            "street": "301 Moore Ave",
            "city": "East York, Ontario",
            "company": "Loblaws"
        },
        {
            "postalCode": "M4T 1L7",
            "street": "12 St Clair Ave E",
            "city": "Toronto, Ontario",
            "company": "Loblaws"
        },
        {
            "postalCode": "M4P 1P1",
            "street": "656 Eglinton Ave. E",
            "city": "Toronto, Ontario",
            "company": "Metro"
        },
        {
            "postalCode": "M5S 1X6",
            "street": "425 Bloor St. W",
            "city": "Toronto, Ontario",
            "company": "Metro"
        },
        {
            "postalCode": "735 College St.",
            "street": "735 College St.",
            "city": "Toronto, Ontario",
            "company": "Metro"
        },
        {
            "postalCode": "M5B 2H4",
            "street": "444 Yonge St.",
            "city": "Toronto, Ontario",
            "company": "Metro"
        },
        {
            "postalCode": "K1J 9L3",
            "street": "1980 Ogilvie Rd",
            "city": "Ottawa, Ontario",
            "company": "Loblaws"
        },
        {
            "postalCode": "K1L 8H5",
            "street": "100 McArthur Rd",
            "city": "Ottawa, Ontario",
            "company": "Loblaws"
        },
        {
            "postalCode": "K1N 5Y6",
            "street": "363 Rideau St",
            "city": "Ottawa, Ontario",
            "company": "Loblaws"
        },
        {
            "postalCode": "K1N 5Y6",
            "street": "1100 Princess St",
            "city": "Kingston, Ontario",
            "company": "Loblaws"
        },
        {
            "postalCode": "K7P 2X9",
            "street": "1048 Midland Ave",
            "city": "Kingston, Ontario",
            "company": "Loblaws"
        },
        {
            "postalCode": "N5X 2S7",
            "street": "1740 Richmond St N",
            "city": "London, Ontario",
            "company": "Loblaws"
        },
        {
            "postalCode": "N6L 1A6",
            "street": "3040 Wonderland Rd S",
            "city": "London, Ontario",
            "company": "Loblaws"
        },
        {
            "postalCode": "P7E 5R5",
            "street": "505 Arthur St. W",
            "city": "Thunder Bay, Ontario",
            "company": "Metro"
        },
        {
            "postalCode": "P4N 1A9",
            "street": "140 Algonquin Blvd W.",
            "city": "Timmins, Ontario",
            "company": "Metro"
        },
        {
            "postalCode": "P3A 5W8",
            "street": "900 Lasalle Boulevard",
            "city": "Sudbury, Ontario",
            "company": "Metro"
        }
    ]
}
