{
    "stores": [{
        "postalCode": "M5B 1L1",
        "street": "60 Carlton Street",
        "city": "Toronto, Ontario",
        "company": "Loblaws"
    },
    {
        "postalCode": "M4K 2P1",
        "street": "720 Broadview Ave",
        "city": "Toronto, Ontario",
        "company": "Loblaws"
    },
    {
        "postalCode": "M5E 1Z2",
        "street": "10 Lower Jarvis St",
        "city": "Toronto, Ontario",
        "company": "Loblaws"
    },
    {
        "postalCode": "M4E 3W2",
        "street": "50 Musgrave St",
        "city": "Toronto, Ontario",
        "company": "Loblaws"
    },
    {
        "postalCode": "M4H 1P6",
        "street": "11 Redway Rd",
        "city": "Toronto, Ontario",
        "company": "Loblaws"
    },
    {
        "postalCode": "M4M 3H9",
        "street": "17 Leslie St",
        "city": "Toronto, Ontario",
        "company": "Loblaws"
    },
    {
        "postalCode": "M4K 2P1",
        "street": "720 Broadview Ave",
        "city": "Toronto, Ontario",
        "company": "Loblaws"
    },
    {
        "postalCode": "M4P 1H4",
        "street": "101 Eglinton Ave E Unit 1",
        "city": "Toronto, Ontario",
        "company": "Loblaws"
    },
    {
        "postalCode": "M4G 1E1",
        "street": "301 Moore Ave",
        "city": "East York, Ontario",
        "company": "Loblaws"
    },
    {
        "postalCode": "M4T 1L7",
        "street": "12 St Clair Ave E",
        "city": "Toronto, Ontario",
        "company": "Loblaws"
    },
    {
        "postalCode": "M4P 1P1",
        "street": "656 Eglinton Ave. E",
        "city": "Toronto, Ontario",
        "company": "Metro"
    },
    {
        "postalCode": "M5S 1X6",
        "street": "425 Bloor St. W",
        "city": "Toronto, Ontario",
        "company": "Metro"
    },
    {
        "postalCode": "735 College St.",
        "street": "735 College St.",
        "city": "Toronto, Ontario",
        "company": "Metro"
    },
    {
        "postalCode": "M5B 2H4",
        "street": "444 Yonge St.",
        "city": "Toronto, Ontario",
        "company": "Metro"
    }
]}
